[{"OBJECT_NAME":"RAPTOR4","OBJECT_ID":"2024-028B","EPOCH":"2026-03-09T13:25:37.970400","MEAN_MOTION":13.70164328,"ECCENTRICITY":0.0014524,"INCLINATION":39.9901,"RA_OF_ASC_NODE":141.9922,"ARG_OF_PERICENTER":23.3417,"MEAN_ANOMALY":336.7986,"EPHEMERIS_TYPE":0,"CLASSIFICATION_TYPE":"U","NORAD_CAT_ID":58956,"ELEMENT_SET_NO":999,"REV_AT_EPOCH":10338,"BSTAR":6.0683e-5,"MEAN_MOTION_DOT":-2.4e-7,"MEAN_MOTION_DDOT":0},{"OBJECT_NAME":"SL-8 R\/B","OBJECT_ID":"1987-009B","EPOCH":"2026-03-09T22:29:36.299616","MEAN_MOTION":13.77044583,"ECCENTRICITY":0.00309244,"INCLINATION":82.9171,"RA_OF_ASC_NODE":51.4038,"ARG_OF_PERICENTER":277.3291,"MEAN_ANOMALY":139.3913,"EPHEMERIS_TYPE":0,"CLASSIFICATION_TYPE":"U","NORAD_CAT_ID":17360,"ELEMENT_SET_NO":999,"REV_AT_EPOCH":96464,"BSTAR":7.1598878e-5,"MEAN_MOTION_DOT":8.6e-7,"MEAN_MOTION_DDOT":0}]
